YAOGAN-36 04C           
1 54750U 22171E   26068.78871400  .00016196  00000+0  54592-3 0  9991
2 54750  34.9797  96.6578 0006685 275.3761  84.6192 15.29852307180246
STARLINK-34699          
1 64921U 25157T   26068.05050456  .00011547  00000+0  40136-3 0  9993
2 64921  53.1605 348.8012 0001265  70.5510 289.5628 15.30200675 36022
